NORAD_CAT_ID,OBJECT_NAME,OBJECT_TYPE,EPOCH,MEAN_MOTION,ECCENTRICITY,INCLINATION,RA_OF_ASC_NODE,ARG_OF_PERICENTER,MEAN_ANOMALY,BSTAR,MEAN_MOTION_DOT,MEAN_MOTION_DDOT,TLE_LINE0,TLE_LINE1,TLE_LINE2,SEMIMAJOR_AXIS,PERIOD,APOGEE,PERIGEE,DECAYED
52644.0,STARLINK-3985,PAYLOAD,2024-05-24 17:55:15,15.08839014,0.0001447,53.2176,314.7839,111.7553,248.3593,0.00020533,2.981e-05,0.0,0 STARLINK-3985,1 52644U 22052AY  24145.74670439  .00002981  00000-0  20533-3 0  9994,2 52644  53.2176 314.7839 0001447 111.7553 248.3593 15.08839014112402,6917.883,95.438,540.749,538.747,0.0
52644.0,STARLINK-3985,PAYLOAD,2024-05-25 11:24:30,15.08832396,0.0001296,53.2175,311.5153,101.5889,258.5249,0.00028452,4.242e-05,0.0,0 STARLINK-3985,1 52644U 22052AY  24146.47535004  .00004242  00000-0  28452-3 0  9993,2 52644  53.2175 311.5153 0001296 101.5889 258.5249 15.08832396112896,6917.904,95.438,540.665,538.872,0.0
52644.0,STARLINK-3985,PAYLOAD,2024-05-25 14:35:16,15.08831143,0.0001323,53.2169,310.9147,114.8199,245.2931,9.0603e-05,1.154e-05,0.0,0 STARLINK-3985,1 52644U 22052AY  24146.60783050  .00001154  00000-0  90603-4 0  9991,2 52644  53.2169 310.9147 0001323 114.8199 245.2931 15.08831143112538,6917.907,95.438,540.688,538.857,0.0
52644.0,STARLINK-3985,PAYLOAD,2024-05-26 14:26:03,15.08841132,0.0001146,53.2181,306.4574,84.7315,275.3808,0.00013978,1.938e-05,0.0,0 STARLINK-3985,1 52644U 22052AY  24147.60143002  .00001938  00000-0  13978-3 0  9998,2 52644  53.2181 306.4574 0001146  84.7315 275.3808 15.08841132112686,6917.877,95.437,540.535,538.949,0.0
52644.0,STARLINK-3985,PAYLOAD,2024-05-26 20:47:35,15.08851463,0.0001185,53.2177,305.2717,80.1327,279.9799,0.00031723,4.766e-05,0.0,0 STARLINK-3985,1 52644U 22052AY  24147.86638502  .00004766  00000-0  31723-3 0  9990,2 52644  53.2177 305.2717 0001185  80.1327 279.9799 15.08851463113108,6917.845,95.437,540.53,538.891,0.0
52644.0,STARLINK-3985,PAYLOAD,2024-05-27 14:16:50,15.08838513,0.0001114,53.2179,302.0005,86.1958,273.9162,0.00016732,2.376e-05,0.0,0 STARLINK-3985,1 52644U 22052AY  24148.59503101  .00002376  00000-0  16732-3 0  9995,2 52644  53.2179 302.0005 0001114  86.1958 273.9162 15.08838513112831,6917.885,95.438,540.521,538.979,0.0
52644.0,STARLINK-3985,PAYLOAD,2024-05-27 17:27:36,15.08840295,0.0001205,53.218,301.4015,90.637,269.4761,0.00015196,2.131e-05,0.0,0 STARLINK-3985,1 52644U 22052AY  24148.72750968  .00002131  00000-0  15196-3 0  9997,2 52644  53.2180 301.4015 0001205  90.6370 269.4761 15.08840295113236,6917.879,95.438,540.578,538.911,0.0
52644.0,STARLINK-3985,PAYLOAD,2024-05-27 20:38:23,15.08839258,0.0001206,53.218,300.8078,88.8265,271.2866,0.00012239,1.66e-05,0.0,0 STARLINK-3985,1 52644U 22052AY  24148.85999043  .00001660  00000-0  12239-3 0  9991,2 52644  53.2180 300.8078 0001206  88.8265 271.2866 15.08839258112874,6917.883,95.438,540.582,538.913,0.0
52644.0,STARLINK-3985,PAYLOAD,2024-05-28 14:07:37,15.08842358,0.000119,53.2176,297.537,99.6608,260.4518,-6.0009e-06,-3.83e-06,0.0,0 STARLINK-3985,1 52644U 22052AY  24149.58862763 -.00000383  00000-0 -60009-5 0  9993,2 52644  53.2176 297.5370 0001190  99.6608 260.4518 15.08842358112980,6917.873,95.437,540.561,538.915,0.0
52644.0,STARLINK-3985,PAYLOAD,2024-05-28 17:18:23,15.08843636,0.0001092,53.218,296.9419,89.6758,270.4359,4.4572e-05,4.22e-06,0.0,0 STARLINK-3985,1 52644U 22052AY  24149.72111033  .00000422  00000-0  44572-4 0  9994,2 52644  53.2180 296.9419 0001092  89.6758 270.4359 15.08843636113006,6917.869,95.437,540.49,538.979,0.0
52644.0,STARLINK-3985,PAYLOAD,2024-05-29 09:12:15,15.0883837,0.0001039,53.2177,293.9699,82.1259,277.9851,4.8667e-05,4.87e-06,0.0,0 STARLINK-3985,1 52644U 22052AY  24150.38351321  .00000487  00000-0  48667-4 0  9994,2 52644  53.2177 293.9699 0001039  82.1259 277.9851 15.08838370113484,6917.885,95.438,540.469,539.032,0.0
52644.0,STARLINK-3985,PAYLOAD,2024-05-29 13:58:24,15.08839066,0.0001052,53.2177,293.0777,81.9045,278.2066,7.0137e-05,8.29e-06,0.0,0 STARLINK-3985,1 52644U 22052AY  24150.58223268  .00000829  00000-0  70137-4 0  9991,2 52644  53.2177 293.0777 0001052  81.9045 278.2066 15.08839066113134,6917.883,95.438,540.476,539.02,0.0
52644.0,STARLINK-3985,PAYLOAD,2024-05-29 17:09:11,15.08840781,0.0001131,53.2184,292.4832,83.7141,276.3979,7.9998e-05,9.86e-06,0.0,0 STARLINK-3985,1 52644U 22052AY  24150.71471138  .00000986  00000-0  79998-4 0  9995,2 52644  53.2184 292.4832 0001131  83.7141 276.3979 15.08840781113152,6917.878,95.438,540.525,538.961,0.0
52644.0,STARLINK-3985,PAYLOAD,2024-05-30 13:49:11,15.08845578,0.0001261,53.2186,288.619,72.6858,287.4272,0.00012919,1.769e-05,0.0,0 STARLINK-3985,1 52644U 22052AY  24151.57582860  .00001769  00000-0  12919-3 0  9994,2 52644  53.2186 288.6190 0001261  72.6858 287.4272 15.08845578113286,6917.863,95.437,540.601,538.856,0.0
52644.0,STARLINK-3985,PAYLOAD,2024-05-31 13:39:58,15.0884601,0.0001085,53.2183,284.1572,92.121,267.9907,9.5432e-05,1.232e-05,0.0,0 STARLINK-3985,1 52644U 22052AY  24152.56942599  .00001232  00000-0  95432-4 0  9990,2 52644  53.2183 284.1572 0001085  92.1210 267.9907 15.08846010113438,6917.862,95.437,540.478,538.976,0.0
52644.0,STARLINK-3985,PAYLOAD,2024-06-01 11:55:22,15.08839233,0.0001564,53.2183,279.9943,100.8766,259.2402,1.5825e-05,-3.6e-07,0.0,0 STARLINK-3985,1 52644U 22052AY  24153.49679120 -.00000036  00000-0  15825-4 0  9990,2 52644  53.2183 279.9943 0001564 100.8766 259.2402 15.08839233113957,6917.883,95.438,540.83,538.666,0.0
52644.0,STARLINK-3985,PAYLOAD,2024-06-01 15:06:09,15.08833445,9.78e-05,53.2163,279.401,83.78,276.3304,9.6107e-06,-1.35e-06,0.0,0 STARLINK-3985,1 52644U 22052AY  24153.62927491 -.00000135  00000-0  96107-5 0  9995,2 52644  53.2163 279.4010 0000978  83.7800 276.3304 15.08833445113591,6917.9,95.438,540.442,539.089,0.0
52644.0,STARLINK-3985,PAYLOAD,2024-06-02 14:56:56,15.08836426,0.0001273,53.2175,274.9386,97.0909,263.0228,6.6159e-05,7.65e-06,0.0,0 STARLINK-3985,1 52644U 22052AY  24154.62287361  .00000765  00000-0  66159-4 0  9992,2 52644  53.2175 274.9386 0001273  97.0909 263.0228 15.08836426113744,6917.891,95.438,540.637,538.876,0.0
52644.0,STARLINK-3985,PAYLOAD,2024-06-03 14:47:43,15.08839894,0.0001218,53.2175,270.4793,88.9292,271.1839,0.00015225,2.136e-05,0.0,0 STARLINK-3985,1 52644U 22052AY  24155.61647312  .00002136  00000-0  15225-3 0  9999,2 52644  53.2175 270.4793 0001218  88.9292 271.1839 15.08839894113896,6917.881,95.438,540.588,538.903,0.0
52644.0,STARLINK-3985,PAYLOAD,2024-06-04 00:20:01,15.08851957,0.0001273,53.2183,268.6942,82.6474,277.4663,0.00022927,3.364e-05,0.0,0 STARLINK-3985,1 52644U 22052AY  24156.01390279  .00003364  00000-0  22927-3 0  9992,2 52644  53.2183 268.6942 0001273  82.6474 277.4663 15.08851957114332,6917.844,95.437,540.589,538.828,0.0
52644.0,STARLINK-3985,PAYLOAD,2024-06-04 11:27:45,15.08827305,0.0001072,53.2154,266.6143,86.5173,273.5941,2.6094e-07,-2.84e-06,0.0,0 STARLINK-3985,1 52644U 22052AY  24156.47760611 -.00000284  00000-0  26094-6 0  9994,2 52644  53.2154 266.6143 0001072  86.5173 273.5941 15.08827305114401,6917.919,95.438,540.526,539.043,0.0
52644.0,STARLINK-3985,PAYLOAD,2024-06-04 14:38:30,15.08838222,9.71e-05,53.2153,266.0192,83.1013,277.009,9.488e-05,1.223e-05,0.0,0 STARLINK-3985,1 52644U 22052AY  24156.61007829  .00001223  00000-0  94880-4 0  9994,2 52644  53.2153 266.0192 0000971  83.1013 277.0090 15.08838222114045,6917.886,95.438,540.423,539.079,0.0
52644.0,STARLINK-3985,PAYLOAD,2024-06-04 17:49:16,15.08842383,0.000127,53.2157,265.4246,88.8518,271.2619,0.0001261,1.72e-05,0.0,0 STARLINK-3985,1 52644U 22052AY  24156.74255554  .00001720  00000-0  12610-3 0  9990,2 52644  53.2157 265.4246 0001270  88.8518 271.2619 15.08842383114447,6917.873,95.437,540.617,538.86,0.0
52644.0,STARLINK-3985,PAYLOAD,2024-06-05 11:18:32,15.0882542,0.0001415,53.2154,262.1541,91.1781,268.9373,-0.00015433,-2.742e-05,0.0,0 STARLINK-3985,1 52644U 22052AY  24157.47120466 -.00002742  00000-0 -15433-3 0  9997,2 52644  53.2154 262.1541 0001415  91.1781 268.9373 15.08825420114551,6917.925,95.438,540.769,538.811,0.0
52644.0,STARLINK-3985,PAYLOAD,2024-06-05 16:04:41,15.08827848,0.0001656,53.2153,261.2613,86.9378,273.1804,-0.00010294,-1.925e-05,0.0,0 STARLINK-3985,1 52644U 22052AY  24157.66992543 -.00001925  00000-0 -10294-3 0  9993,2 52644  53.2153 261.2613 0001656  86.9378 273.1804 15.08827848114206,6917.918,95.438,540.928,538.637,0.0
52644.0,STARLINK-3985,PAYLOAD,2024-06-06 00:01:36,15.08845246,0.0001388,53.2213,259.7714,83.7087,276.4063,0.0001548,2.177e-05,0.0,0 STARLINK-3985,1 52644U 22052AY  24158.00111574  .00002177  00000-0  15480-3 0  9999,2 52644  53.2213 259.7714 0001388  83.7087 276.4063 15.08845246114633,6917.864,95.437,540.69,538.769,0.0
52644.0,STARLINK-3985,PAYLOAD,2024-06-06 12:44:42,15.0883536,0.0001115,53.2125,257.3944,84.7698,275.3421,0.00020419,2.963e-05,0.0,0 STARLINK-3985,1 52644U 22052AY  24158.53104217  .00002963  00000-0  20419-3 0  9994,2 52644  53.2125 257.3944 0001115  84.7698 275.3421 15.08835360114712,6917.895,95.438,540.531,538.988,0.0
52644.0,STARLINK-3985,PAYLOAD,2024-06-07 15:46:15,15.08846071,0.0001115,53.2141,252.3383,97.9484,262.1635,0.00025336,3.747e-05,0.0,0 STARLINK-3985,1 52644U 22052AY  24159.65711813  .00003747  00000-0  25336-3 0  9998,2 52644  53.2141 252.3383 0001115  97.9484 262.1635 15.08846071114881,6917.862,95.437,540.498,538.955,0.0
52644.0,STARLINK-3985,PAYLOAD,2024-06-07 23:43:09,15.0886395,0.0001019,53.2148,250.8542,82.7441,277.3666,1.5054e-05,-4.8e-07,0.0,0 STARLINK-3985,1 52644U 22052AY  24159.98830679 -.00000048  00000-0  15054-4 0  9995,2 52644  53.2148 250.8542 0001019  82.7441 277.3666 15.08863950114939,6917.807,95.436,540.377,538.967,0.0
52644.0,STARLINK-3985,PAYLOAD,2024-06-08 12:26:15,15.08842871,0.0001351,53.2158,248.4724,100.4193,259.6951,0.00011763,1.585e-05,0.0,0 STARLINK-3985,1 52644U 22052AY  24160.51823841  .00001585  00000-0  11763-3 0  9997,2 52644  53.2158 248.4724 0001351 100.4193 259.6951 15.08842871115015,6917.872,95.437,540.671,538.802,0.0
